{
    "CCSDS_OMM_VERS": "3.0",
    "COMMENT": "GENERATED VIA SPACE-TRACK.ORG API",
    "CREATION_DATE": "2025-11-23T21:08:43",
    "ORIGINATOR": "18 SPCS",
    "OBJECT_NAME": "BEIDOU 3M23",
    "OBJECT_ID": "2019-061A",
    "CENTER_NAME": "EARTH",
    "REF_FRAME": "TEME",
    "TIME_SYSTEM": "UTC",
    "MEAN_ELEMENT_THEORY": "SGP4",
    "EPOCH": "2025-11-23T01:14:33.593280",
    "MEAN_MOTION": "1.86229431",
    "ECCENTRICITY": "0.00095322",
    "INCLINATION": "54.4002",
    "RA_OF_ASC_NODE": "189.6810",
    "ARG_OF_PERICENTER": "22.2342",
    "MEAN_ANOMALY": "337.9072",
    "EPHEMERIS_TYPE": "0",
    "CLASSIFICATION_TYPE": "U",
    "NORAD_CAT_ID": "44542",
    "ELEMENT_SET_NO": "999",
    "REV_AT_EPOCH": "4195",
    "BSTAR": "0.00000000000000",
    "MEAN_MOTION_DOT": "0.00000068",
    "MEAN_MOTION_DDOT": "0.0000000000000",
    "SEMIMAJOR_AXIS": "27906.345",
    "PERIOD": "773.240",
    "APOAPSIS": "21554.811",
    "PERIAPSIS": "21501.610",
    "OBJECT_TYPE": "PAYLOAD",
    "RCS_SIZE": "LARGE",
    "COUNTRY_CODE": "PRC",
    "LAUNCH_DATE": "2019-09-22",
    "SITE": "XSC",
    "DECAY_DATE": null,
    "FILE": "4896238",
    "GP_ID": "303334377",
    "TLE_LINE0": "0 BEIDOU 3M23",
    "TLE_LINE1": "1 44542U 19061A   25327.05177770  .00000068  00000-0  00000-0 0  9993",
    "TLE_LINE2": "2 44542  54.4002 189.6810 0009532  22.2342 337.9072  1.86229431 41959"
}